CCSDS_OMM_VERS = 2.0
CREATION_DATE  = 
ORIGINATOR     = 

OBJECT_NAME    = KUIPER-00164
OBJECT_ID      = 2025-301B
CENTER_NAME    = EARTH
REF_FRAME      = TEME
TIME_SYSTEM    = UTC
MEAN_ELEMENT_THEORY = SGP/SGP4

EPOCH          = 2026-01-05T07:43:21.942336
MEAN_MOTION    = 15.36515248
ECCENTRICITY   = .0003099
INCLINATION    = 51.8727
RA_OF_ASC_NODE = 11.3035
ARG_OF_PERICENTER = 128.3743
MEAN_ANOMALY   = 231.7522

EPHEMERIS_TYPE = 0
CLASSIFICATION_TYPE = U
NORAD_CAT_ID   = 67134
ELEMENT_SET_NO = 999
REV_AT_EPOCH   = 417
BSTAR          = .97253101E-3
MEAN_MOTION_DOT = .34973E-3
MEAN_MOTION_DDOT = 0

CCSDS_OMM_VERS = 2.0
CREATION_DATE  = 
ORIGINATOR     = 

OBJECT_NAME    = KUIPER-00175
OBJECT_ID      = 2025-301C
CENTER_NAME    = EARTH
REF_FRAME      = TEME
TIME_SYSTEM    = UTC
MEAN_ELEMENT_THEORY = SGP/SGP4

EPOCH          = 2026-01-05T07:34:09.662304
MEAN_MOTION    = 15.37033392
ECCENTRICITY   = .00028266
INCLINATION    = 51.8740
RA_OF_ASC_NODE = 11.2576
ARG_OF_PERICENTER = 84.0341
MEAN_ANOMALY   = 276.0968

EPHEMERIS_TYPE = 0
CLASSIFICATION_TYPE = U
NORAD_CAT_ID   = 67135
ELEMENT_SET_NO = 999
REV_AT_EPOCH   = 406
BSTAR          = .80486075E-3
MEAN_MOTION_DOT = .29345E-3
MEAN_MOTION_DDOT = 0

CCSDS_OMM_VERS = 2.0
CREATION_DATE  = 
ORIGINATOR     = 

OBJECT_NAME    = KUIPER-00179
OBJECT_ID      = 2025-301D
CENTER_NAME    = EARTH
REF_FRAME      = TEME
TIME_SYSTEM    = UTC
MEAN_ELEMENT_THEORY = SGP/SGP4

EPOCH          = 2026-01-05T07:40:40.698336
MEAN_MOTION    = 15.36606993
ECCENTRICITY   = .00034017
INCLINATION    = 51.8740
RA_OF_ASC_NODE = 11.2890
ARG_OF_PERICENTER = 110.2708
MEAN_ANOMALY   = 249.8644

EPHEMERIS_TYPE = 0
CLASSIFICATION_TYPE = U
NORAD_CAT_ID   = 67136
ELEMENT_SET_NO = 999
REV_AT_EPOCH   = 417
BSTAR          = .99250848E-3
MEAN_MOTION_DOT = .35811E-3
MEAN_MOTION_DDOT = 0

CCSDS_OMM_VERS = 2.0
CREATION_DATE  = 
ORIGINATOR     = 

OBJECT_NAME    = KUIPER-00181
OBJECT_ID      = 2025-301E
CENTER_NAME    = EARTH
REF_FRAME      = TEME
TIME_SYSTEM    = UTC
MEAN_ELEMENT_THEORY = SGP/SGP4

EPOCH          = 2026-01-05T06:42:13.564224
MEAN_MOTION    = 15.34850367
ECCENTRICITY   = .00104109
INCLINATION    = 51.8653
RA_OF_ASC_NODE = 11.7563
ARG_OF_PERICENTER = 175.7846
MEAN_ANOMALY   = 184.3229

EPHEMERIS_TYPE = 0
CLASSIFICATION_TYPE = U
NORAD_CAT_ID   = 67137
ELEMENT_SET_NO = 999
REV_AT_EPOCH   = 414
BSTAR          = .10592031E-2
MEAN_MOTION_DOT = .36189E-3
MEAN_MOTION_DDOT = 0

CCSDS_OMM_VERS = 2.0
CREATION_DATE  = 
ORIGINATOR     = 

OBJECT_NAME    = KUIPER-00183
OBJECT_ID      = 2025-301F
CENTER_NAME    = EARTH
REF_FRAME      = TEME
TIME_SYSTEM    = UTC
MEAN_ELEMENT_THEORY = SGP/SGP4

EPOCH          = 2026-01-05T06:47:58.691616
MEAN_MOTION    = 15.34560162
ECCENTRICITY   = .00113434
INCLINATION    = 51.8626
RA_OF_ASC_NODE = 11.7785
ARG_OF_PERICENTER = 177.2118
MEAN_ANOMALY   = 182.8933

EPHEMERIS_TYPE = 0
CLASSIFICATION_TYPE = U
NORAD_CAT_ID   = 67138
ELEMENT_SET_NO = 999
REV_AT_EPOCH   = 415
BSTAR          = .10638543E-2
MEAN_MOTION_DOT = .36023E-3
MEAN_MOTION_DDOT = 0

CCSDS_OMM_VERS = 2.0
CREATION_DATE  = 
ORIGINATOR     = 

OBJECT_NAME    = KUIPER-00184
OBJECT_ID      = 2025-301G
CENTER_NAME    = EARTH
REF_FRAME      = TEME
TIME_SYSTEM    = UTC
MEAN_ELEMENT_THEORY = SGP/SGP4

EPOCH          = 2026-01-05T06:40:54.128928
MEAN_MOTION    = 15.34814409
ECCENTRICITY   = .00094791
INCLINATION    = 51.8640
RA_OF_ASC_NODE = 11.7492
ARG_OF_PERICENTER = 174.9353
MEAN_ANOMALY   = 185.1731

EPHEMERIS_TYPE = 0
CLASSIFICATION_TYPE = U
NORAD_CAT_ID   = 67139
ELEMENT_SET_NO = 999
REV_AT_EPOCH   = 426
BSTAR          = .12716389E-3
MEAN_MOTION_DOT = .3981E-4
MEAN_MOTION_DDOT = 0

CCSDS_OMM_VERS = 2.0
CREATION_DATE  = 
ORIGINATOR     = 

OBJECT_NAME    = KUIPER-00186
OBJECT_ID      = 2025-301H
CENTER_NAME    = EARTH
REF_FRAME      = TEME
TIME_SYSTEM    = UTC
MEAN_ELEMENT_THEORY = SGP/SGP4

EPOCH          = 2026-01-05T06:29:47.917536
MEAN_MOTION    = 15.35578173
ECCENTRICITY   = .00077909
INCLINATION    = 51.8697
RA_OF_ASC_NODE = 11.7053
ARG_OF_PERICENTER = 160.5675
MEAN_ANOMALY   = 199.5609

EPHEMERIS_TYPE = 0
CLASSIFICATION_TYPE = U
NORAD_CAT_ID   = 67140
ELEMENT_SET_NO = 999
REV_AT_EPOCH   = 398
BSTAR          = .81753636E-3
MEAN_MOTION_DOT = .28456E-3
MEAN_MOTION_DDOT = 0

CCSDS_OMM_VERS = 2.0
CREATION_DATE  = 
ORIGINATOR     = 

OBJECT_NAME    = KUIPER-00187
OBJECT_ID      = 2025-301J
CENTER_NAME    = EARTH
REF_FRAME      = TEME
TIME_SYSTEM    = UTC
MEAN_ELEMENT_THEORY = SGP/SGP4

EPOCH          = 2026-01-05T06:15:22.640544
MEAN_MOTION    = 15.36202741
ECCENTRICITY   = .00049173
INCLINATION    = 51.8718
RA_OF_ASC_NODE = 11.6426
ARG_OF_PERICENTER = 145.6627
MEAN_ANOMALY   = 214.4678

EPHEMERIS_TYPE = 0
CLASSIFICATION_TYPE = U
NORAD_CAT_ID   = 67141
ELEMENT_SET_NO = 999
REV_AT_EPOCH   = 398
BSTAR          = .54086329E-3
MEAN_MOTION_DOT = .19045E-3
MEAN_MOTION_DDOT = 0

CCSDS_OMM_VERS = 2.0
CREATION_DATE  = 
ORIGINATOR     = 

OBJECT_NAME    = KUIPER-00188
OBJECT_ID      = 2025-301K
CENTER_NAME    = EARTH
REF_FRAME      = TEME
TIME_SYSTEM    = UTC
MEAN_ELEMENT_THEORY = SGP/SGP4

EPOCH          = 2026-01-05T06:31:33.811104
MEAN_MOTION    = 15.35460693
ECCENTRICITY   = .00075669
INCLINATION    = 51.8709
RA_OF_ASC_NODE = 11.7146
ARG_OF_PERICENTER = 166.1815
MEAN_ANOMALY   = 193.9380

EPHEMERIS_TYPE = 0
CLASSIFICATION_TYPE = U
NORAD_CAT_ID   = 67142
ELEMENT_SET_NO = 999
REV_AT_EPOCH   = 398
BSTAR          = .79092688E-3
MEAN_MOTION_DOT = .27407E-3
MEAN_MOTION_DDOT = 0

CCSDS_OMM_VERS = 2.0
CREATION_DATE  = 
ORIGINATOR     = 

OBJECT_NAME    = KUIPER-00191
OBJECT_ID      = 2025-301L
CENTER_NAME    = EARTH
REF_FRAME      = TEME
TIME_SYSTEM    = UTC
MEAN_ELEMENT_THEORY = SGP/SGP4

EPOCH          = 2026-01-05T06:27:48.329568
MEAN_MOTION    = 15.35602970
ECCENTRICITY   = .00066149
INCLINATION    = 51.8687
RA_OF_ASC_NODE = 11.6957
ARG_OF_PERICENTER = 159.9512
MEAN_ANOMALY   = 200.1735

EPHEMERIS_TYPE = 0
CLASSIFICATION_TYPE = U
NORAD_CAT_ID   = 67143
ELEMENT_SET_NO = 999
REV_AT_EPOCH   = 401
BSTAR          = .87478244E-3
MEAN_MOTION_DOT = .305E-3
MEAN_MOTION_DDOT = 0

CCSDS_OMM_VERS = 2.0
CREATION_DATE  = 
ORIGINATOR     = 

OBJECT_NAME    = KUIPER-00196
OBJECT_ID      = 2025-301M
CENTER_NAME    = EARTH
REF_FRAME      = TEME
TIME_SYSTEM    = UTC
MEAN_ELEMENT_THEORY = SGP/SGP4

EPOCH          = 2026-01-05T06:11:55.762656
MEAN_MOTION    = 15.36385599
ECCENTRICITY   = .00038038
INCLINATION    = 51.8734
RA_OF_ASC_NODE = 11.6267
ARG_OF_PERICENTER = 122.5539
MEAN_ANOMALY   = 237.5816

EPHEMERIS_TYPE = 0
CLASSIFICATION_TYPE = U
NORAD_CAT_ID   = 67144
ELEMENT_SET_NO = 999
REV_AT_EPOCH   = 398
BSTAR          = .58310569E-3
MEAN_MOTION_DOT = .20687E-3
MEAN_MOTION_DDOT = 0

CCSDS_OMM_VERS = 2.0
CREATION_DATE  = 
ORIGINATOR     = 

OBJECT_NAME    = KUIPER-00204
OBJECT_ID      = 2025-301N
CENTER_NAME    = EARTH
REF_FRAME      = TEME
TIME_SYSTEM    = UTC
MEAN_ELEMENT_THEORY = SGP/SGP4

EPOCH          = 2026-01-05T06:00:02.000160
MEAN_MOTION    = 15.34557196
ECCENTRICITY   = .0003796
INCLINATION    = 51.8766
RA_OF_ASC_NODE = 11.6044
ARG_OF_PERICENTER = 91.1943
MEAN_ANOMALY   = 245.2708

EPHEMERIS_TYPE = 0
CLASSIFICATION_TYPE = U
NORAD_CAT_ID   = 67145
ELEMENT_SET_NO = 999
REV_AT_EPOCH   = 408
BSTAR          = -.54447369E-1
MEAN_MOTION_DOT = -.1679286E-1
MEAN_MOTION_DDOT = 0

