KUIPER-00164            
1 67134U 25301B   26005.32178174  .00034973  00000+0  97253-3 0  9992
2 67134  51.8727  11.3035 0003099 128.3743 231.7522 15.36515248  4179
KUIPER-00175            
1 67135U 25301C   26005.31538961  .00029345  00000+0  80486-3 0  9993
2 67135  51.8740  11.2576 0002826  84.0341 276.0968 15.37033392  4063
KUIPER-00179            
1 67136U 25301D   26005.31991549  .00035811  00000+0  99251-3 0  9994
2 67136  51.8740  11.2890 0003401 110.2708 249.8644 15.36606993  4175
KUIPER-00181            
1 67137U 25301E   26005.27932366  .00036189  00000+0  10592-2 0  9991
2 67137  51.8653  11.7563 0010410 175.7846 184.3229 15.34850367  4141
KUIPER-00183            
1 67138U 25301F   26005.28331819  .00036023  00000+0  10639-2 0  9998
2 67138  51.8626  11.7785 0011343 177.2118 182.8933 15.34560162  4150
KUIPER-00184            
1 67139U 25301G   26005.27840427  .00003981  00000+0  12716-3 0  9994
2 67139  51.8640  11.7492 0009479 174.9353 185.1731 15.34814409  4264
KUIPER-00186            
1 67140U 25301H   26005.27069349  .00028456  00000+0  81754-3 0  9994
2 67140  51.8697  11.7053 0007790 160.5675 199.5609 15.35578173  3980
KUIPER-00187            
1 67141U 25301J   26005.26067871  .00019045  00000+0  54086-3 0  9994
2 67141  51.8718  11.6426 0004917 145.6627 214.4678 15.36202741  3986
KUIPER-00188            
1 67142U 25301K   26005.27191911  .00027407  00000+0  79093-3 0  9995
2 67142  51.8709  11.7146 0007566 166.1815 193.9380 15.35460693  3989
KUIPER-00191            
1 67143U 25301L   26005.26930937  .00030500  00000+0  87478-3 0  9998
2 67143  51.8687  11.6957 0006614 159.9512 200.1735 15.35602970  4017
KUIPER-00196            
1 67144U 25301M   26005.25828429  .00020687  00000+0  58311-3 0  9999
2 67144  51.8734  11.6267 0003803 122.5539 237.5816 15.36385599  3982
KUIPER-00204            
1 67145U 25301N   26005.25002315 -.01679286  00000+0 -54447-1 0  9990
2 67145  51.8766  11.6044 0003796  91.1943 245.2708 15.34557196  4082
